OBJECT_NAME,OBJECT_ID,EPOCH,MEAN_MOTION,ECCENTRICITY,INCLINATION,RA_OF_ASC_NODE,ARG_OF_PERICENTER,MEAN_ANOMALY,EPHEMERIS_TYPE,CLASSIFICATION_TYPE,NORAD_CAT_ID,ELEMENT_SET_NO,REV_AT_EPOCH,BSTAR,MEAN_MOTION_DOT,MEAN_MOTION_DDOT
IRIDIUM 135,2017-083A,2025-12-17T14:43:58.985760,14.34215620,.00021498,86.3965,37.9064,92.9894,267.1548,0,U,43070,999,41812,.74789616E-4,.229E-5,0
IRIDIUM 138,2017-083B,2025-12-17T15:20:31.144704,14.34218033,.00017748,86.3978,37.5632,94.2284,265.9115,0,U,43071,999,41811,.36834358E-4,.123E-5,0
IRIDIUM 116,2017-083C,2025-12-17T14:34:51.370464,14.34216492,.00024526,86.3957,37.8968,95.9242,264.2233,0,U,43072,999,41814,-.3586883E-5,.1E-6,0
IRIDIUM 130,2017-083D,2025-12-17T13:49:11.358624,14.34219453,.00024553,86.3973,38.1681,99.9448,260.2025,0,U,43073,999,41808,.56163239E-4,.177E-5,0
IRIDIUM 151,2017-083E,2025-12-17T14:53:07.239552,14.34217859,.00022349,86.3966,37.9457,93.7340,266.4112,0,U,43074,999,41811,.20966918E-4,.78E-6,0
IRIDIUM 134,2017-083F,2025-12-17T14:07:27.438528,14.34215069,.00022727,86.3967,37.9644,99.0099,261.1354,0,U,43075,999,41807,.7820459E-4,.239E-5,0
IRIDIUM 137,2017-083G,2025-12-17T14:25:43.363776,14.34217347,.00025452,86.3963,38.0478,87.0753,273.0734,0,U,43076,999,41814,.120951E-6,.2E-6,0
IRIDIUM 141,2017-083H,2025-12-17T14:16:35.267232,14.34217402,.00020113,86.3963,37.8919,95.9666,264.1759,0,U,43077,999,41814,.15033147E-4,.62E-6,0
IRIDIUM 153,2017-083J,2025-12-17T13:07:43.364352,14.34217727,.00017536,86.3966,6.4021,97.0556,263.0839,0,U,43078,999,41924,-.1091605E-4,-.11E-6,0
IRIDIUM 131,2017-083K,2025-12-17T12:17:51.261504,14.34217266,.00020098,86.3965,38.1000,93.6760,266.4665,0,U,43079,999,41806,-.1799528E-4,-.31E-6,0
IRIDIUM 144,2018-030A,2025-12-17T13:16:51.537792,14.34217187,.00022589,86.3964,6.3329,94.4347,265.7106,0,U,43249,999,40410,-.16758192E-4,-.27E-6,0
IRIDIUM 149,2018-030B,2025-12-17T13:25:59.447712,14.34218156,.00022179,86.3966,6.2993,92.6180,267.5270,0,U,43250,999,40412,.46162586E-4,.149E-5,0
IRIDIUM 157,2018-030C,2025-12-17T13:53:23.596512,14.34217197,.00021919,86.3967,6.3405,87.7780,272.3667,0,U,43251,999,40410,.87516464E-4,.265E-5,0
IRIDIUM 140,2018-030D,2025-12-17T14:20:47.499072,14.34217147,.00021724,86.3964,6.3455,94.8954,265.2490,0,U,43252,999,40416,-.4262319E-5,.8E-7,0
IRIDIUM 145,2018-030E,2025-12-17T14:02:31.359552,14.34216015,.0002564,86.3967,6.3234,93.9372,266.2117,0,U,43253,999,40409,.70556068E-4,.217E-5,0
IRIDIUM 146,2018-030F,2025-12-17T13:35:07.637568,14.34213779,.00023934,86.3966,6.3443,92.5628,267.5842,0,U,43254,999,40410,.74022687E-4,.227E-5,0
IRIDIUM 148,2018-030G,2025-12-17T12:49:27.550560,14.34216827,.00022558,86.3968,6.3978,89.0281,271.1174,0,U,43255,999,40413,.9729319E-5,.47E-6,0
IRIDIUM 142,2018-030H,2025-12-17T13:44:15.578592,14.34217619,.00025892,86.3964,6.2776,94.2818,265.8674,0,U,43256,999,40410,.20290507E-4,.77E-6,0
IRIDIUM 150,2018-030J,2025-12-17T14:39:03.323232,14.34215653,.00023433,86.3968,6.3720,93.5043,266.6420,0,U,43257,999,40413,.71806844E-4,.221E-5,0
IRIDIUM 143,2018-030K,2025-12-17T14:11:39.476832,14.34216545,.00024833,86.3971,6.4654,93.9594,266.1885,0,U,43258,999,40406,.80313681E-4,.245E-5,0
IRIDIUM 161,2018-047C,2025-12-17T12:31:57.668736,14.43280444,.00018592,86.4508,164.3832,87.0915,273.0499,0,U,43478,999,39893,.28295296E-4,.115E-5,0
IRIDIUM 152,2018-047D,2025-12-17T13:32:22.182432,14.34217276,.00017091,86.3988,164.2262,91.3451,268.7940,0,U,43479,999,39645,-.12495807E-4,-.15E-6,0
IRIDIUM 147,2018-047E,2025-12-17T13:41:30.117408,14.34217467,.00019979,86.3984,164.2256,87.1385,273.0040,0,U,43480,999,39645,.2871271E-5,.28E-6,0
IRIDIUM 110,2018-047F,2025-12-17T12:10:09.850944,14.34217608,.00015559,86.3988,164.3390,81.1643,278.9729,0,U,43481,999,39643,.84900887E-4,.258E-5,0
IRIDIUM 162,2018-047G,2025-12-17T12:22:53.341824,14.43278796,.00018611,86.4507,164.2792,99.2586,260.8825,0,U,43482,999,39892,.31873788E-4,.127E-5,0
IRIDIUM 160,2018-061A,2025-12-17T15:53:34.582848,14.34217134,.00018825,86.3977,132.6957,87.7932,272.3479,0,U,43569,999,38735,.87021059E-4,.263E-5,0
IRIDIUM 166,2018-061B,2025-12-17T11:28:42.542688,14.34217661,.00021359,86.3977,132.7254,91.9703,268.1738,0,U,43570,999,38735,.75102143E-4,.23E-5,0
IRIDIUM 158,2018-061C,2025-12-17T15:44:26.443968,14.34216040,.00018604,86.3978,132.6612,99.5269,260.6137,0,U,43571,999,38734,.86508245E-4,.262E-5,0
IRIDIUM 165,2018-061D,2025-12-17T11:19:34.555872,14.34216571,.00019559,86.3981,132.7809,91.6758,268.4662,0,U,43572,999,38734,-.10979802E-4,-.11E-6,0
IRIDIUM 155,2018-061E,2025-12-17T10:24:46.569312,14.34217095,.00019925,86.3977,132.6752,99.3870,260.7551,0,U,43573,999,38730,-.8761161E-5,-.5E-7,0
